norad_id,name,regime,epoch,line1,line2,inclination,eccentricity,mean_motion,raan,arg_pericenter,mean_anomaly
36395,SDO,IGO,18011.36643146,1 36395U 10005A   18011.36643146 -.00000065 +00000-0 +00000-0 0 0682\,2 36395 029.0108 136.7086 0001223 112.4453 251.6347 01.0026983102916,29.0108,0.0001223,1.00269831,136.7086,112.4453,251.6347
36395,SDO,IGO,18012.34323769,1 36395U 10005A   18012.34323769 -.00000067 +00000-0 +00000-0 0 0001\,2 36395 029.0119 136.6917 0001205 114.6425 242.0578 01.0026984402919,29.0119,0.0001205,1.00269844,136.6917,114.6425,242.0578
36395,SDO,IGO,18013.34768264,1 36395U 10005A   18013.34768264 -.00000070 +00000-0 +00000-0 0 0683\,2 36395 029.0130 136.6744 0001195 117.0128 242.2851 01.0026983902917,29.013,0.0001195,1.00269839,136.6744,117.0128,242.2851
36395,SDO,IGO,18014.36332513,1 36395U 10005A   18014.36332513 -.00000073 +00000-0 +00000-0 0 0684\,2 36395 029.0142 136.6570 0001191 119.4402 246.4974 01.0026981802919,29.0142,0.0001191,1.00269818,136.657,119.4402,246.4974
36395,SDO,IGO,18015.46662321,1 36395U 10005A   18015.46662321 -.00000074 +00000-0 +00000-0 0 0685\,2 36395 029.0153 136.6382 0001201 121.6126 282.6077 01.0026977802920,29.0153,0.0001201,1.00269778,136.6382,121.6126,282.6077
36395,SDO,IGO,18016.46651094,1 36395U 10005A   18016.46651094 -.00000075 +00000-0 +00000-0 0 0001\,2 36395 029.0164 136.6211 0001215 123.3191 281.8533 01.0026972802924,29.0164,0.0001215,1.00269728,136.6211,123.3191,281.8533
36395,SDO,IGO,18017.34007692,1 36395U 10005A   18017.34007692 -.00000074 +00000-0 +00000-0 0 0686\,2 36395 029.0173 136.6061 0001221 124.8667 235.6565 01.0026967602922,29.0173,0.0001221,1.00269676,136.6061,124.8667,235.6565
36395,SDO,IGO,18019.32399326,1 36395U 10005A   18019.32399326 -.00000069 +00000-0 +00000-0 0 0687\,2 36395 029.0195 136.5720 0001244 126.9500 229.7512 01.0026948602923,29.0195,0.0001244,1.00269486,136.572,126.95,229.7512
36395,SDO,IGO,18020.33778907,1 36395U 10005A   18020.33778907 -.00000065 +00000-0 +00000-0 0 0688\,2 36395 029.0206 136.5544 0001256 127.2906 235.3825 01.0026935302925,29.0206,0.0001256,1.00269353,136.5544,127.2906,235.3825
36395,SDO,IGO,18021.32546095,1 36395U 10005A   18021.32546095 -.00000062 +00000-0 +00000-0 0 0001\,2 36395 029.0217 136.5372 0001263 127.0818 232.1321 01.0026920502928,29.0217,0.0001263,1.00269205,136.5372,127.0818,232.1321
36395,SDO,IGO,18022.34143432,1 36395U 10005A   18022.34143432 -.00000060 +00000-0 +00000-0 0 0689\,2 36395 029.0228 136.5194 0001265 126.4168 239.5542 01.0026904202927,29.0228,0.0001265,1.00269042,136.5194,126.4168,239.5542
36395,SDO,IGO,18023.42842043,1 36395U 10005A   18023.42842043 -.00000060 +00000-0 +00000-0 0 0690\,2 36395 029.0240 136.5001 0001258 125.4365 272.9260 01.0026887202928,29.024,0.0001258,1.00268872,136.5001,125.4365,272.926
36395,SDO,IGO,18024.32471508,1 36395U 10005A   18024.32471508 -.00000062 +00000-0 +00000-0 0 0001\,2 36395 029.0250 136.4840 0001263 123.6703 238.2457 01.0026872702932,29.025,0.0001263,1.00268727,136.484,123.6703,238.2457
36395,SDO,IGO,18025.31716006,1 36395U 10005A   18025.31716006 -.00000066 +00000-0 +00000-0 0 0691\,2 36395 029.0263 136.4660 0001242 122.5885 237.5897 01.0026858502930,29.0263,0.0001242,1.00268585,136.466,122.5885,237.5897
36395,SDO,IGO,18026.30334066,1 36395U 10005A   18026.30334066 -.00000072 +00000-0 +00000-0 0 0001\,2 36395 029.0275 136.4481 0001258 120.1496 236.0295 01.0026847002933,29.0275,0.0001258,1.0026847,136.4481,120.1496,236.0295
36395,SDO,IGO,18027.35484503,1 36395U 10005A   18027.35484503 -.00000080 +00000-0 +00000-0 0 0692\,2 36395 029.0290 136.4289 0001235 118.4868 257.2738 01.0026835502932,29.029,0.0001235,1.00268355,136.4289,118.4868,257.2738
36395,SDO,IGO,18028.30671109,1 36395U 10005A   18028.30671109 -.00000087 +00000-0 +00000-0 0 0001\,2 36395 029.0303 136.4115 0001198 117.1243 242.2490 01.0026826302935,29.0303,0.0001198,1.00268263,136.4115,117.1243,242.249
36395,SDO,IGO,18029.32287466,1 36395U 10005A   18029.32287466 -.00000093 +00000-0 +00000-0 0 0693\,2 36395 029.0317 136.3928 0001148 115.3771 250.8193 01.0026818602934,29.0317,0.0001148,1.00268186,136.3928,115.3771,250.8193
36395,SDO,IGO,18030.29543510,1 36395U 10005A   18030.29543510 -.00000097 +00000-0 +00000-0 0 0001\,2 36395 029.0330 136.3750 0001102 113.3897 243.8896 01.0026813602937,29.033,0.0001102,1.00268136,136.375,113.3897,243.8896
36395,SDO,IGO,18031.30118778,1 36395U 10005A   18031.30118778 -.00000098 +00000-0 +00000-0 0 0001\,2 36395 029.0343 136.3564 0001047 111.6013 248.7428 01.0026811502939,29.0343,0.0001047,1.00268115,136.3564,111.6013,248.7428
36395,SDO,IGO,18032.29976545,1 36395U 10005A   18032.29976545 -.00000096 +00000-0 +00000-0 0 0695\,2 36395 029.0357 136.3381 0001000 110.2216 250.5973 01.0026812902937,29.0357,0.0001,1.00268129,136.3381,110.2216,250.5973
36395,SDO,IGO,18034.28868796,1 36395U 10005A   18034.28868796 -.00000090 +00000-0 +00000-0 0 0696\,2 36395 029.0384 136.3020 0000913 109.9002 248.8964 01.0026825202938,29.0384,9.13e-05,1.00268252,136.302,109.9002,248.8964
36395,SDO,IGO,18035.29489192,1 36395U 10005A   18035.29489192 -.00000086 +00000-0 +00000-0 0 0697\,2 36395 029.0397 136.2840 0000867 111.0105 251.0140 01.0026835102940,29.0397,8.67e-05,1.00268351,136.284,111.0105,251.014
36395,SDO,IGO,18037.28122248,1 36395U 10005A   18037.28122248 -.00000083 +00000-0 +00000-0 0 0698\,2 36395 029.0420 136.2488 0000791 114.8183 244.2487 01.0026855102941,29.042,7.91e-05,1.00268551,136.2488,114.8183,244.2487
36395,SDO,IGO,18038.27476553,1 36395U 10005A   18038.27476553 -.00000084 +00000-0 +00000-0 0 0001\,2 36395 029.0431 136.2314 0000745 117.9815 239.7431 01.0026861702945,29.0431,7.45e-05,1.00268617,136.2314,117.9815,239.7431
36395,SDO,IGO,18039.27707968,1 36395U 10005A   18039.27707968 -.00000086 +00000-0 +00000-0 0 0001\,2 36395 029.0442 136.2138 0000716 121.6488 237.9001 01.0026865802946,29.0442,7.16e-05,1.00268658,136.2138,121.6488,237.9001
36395,SDO,IGO,18042.26368806,1 36395U 10005A   18042.26368806 -.00000091 +00000-0 +00000-0 0 0700\,2 36395 029.0473 136.1619 0000714 132.3362 225.3450 01.0026865002946,29.0473,7.14e-05,1.0026865,136.1619,132.3362,225.345
36395,SDO,IGO,18043.26851549,1 36395U 10005A   18043.26851549 -.00000091 +00000-0 +00000-0 0 0701\,2 36395 029.0483 136.1446 0000688 137.6615 222.7506 01.0026860802948,29.0483,6.88e-05,1.00268608,136.1446,137.6615,222.7506
36395,SDO,IGO,18044.25924875,1 36395U 10005A   18044.25924875 -.00000089 +00000-0 +00000-0 0 0001\,2 36395 029.0493 136.1275 0000706 139.7738 218.2817 01.0026856102951,29.0493,7.06e-05,1.00268561,136.1275,139.7738,218.2817
36395,SDO,IGO,18045.41374872,1 36395U 10005A   18045.41374872 -.00000086 +00000-0 +00000-0 0 0702\,2 36395 029.0504 136.1075 0000730 141.1086 273.7079 01.0026847702950,29.0504,7.3e-05,1.00268477,136.1075,141.1086,273.7079
36395,SDO,IGO,18046.25115389,1 36395U 10005A   18046.25115389 -.00000083 +00000-0 +00000-0 0 0001\,2 36395 029.0513 136.0929 0000734 142.1799 214.9300 01.0026841202953,29.0513,7.34e-05,1.00268412,136.0929,142.1799,214.93
36395,SDO,IGO,18047.25323878,1 36395U 10005A   18047.25323878 -.00000079 +00000-0 +00000-0 0 0703\,2 36395 029.0523 136.0754 0000744 142.3776 216.4729 01.0026830802951,29.0523,7.44e-05,1.00268308,136.0754,142.3776,216.4729
36395,SDO,IGO,18049.24965362,1 36395U 10005A   18049.24965362 -.00000071 +00000-0 +00000-0 0 0704\,2 36395 029.0544 136.0402 0000745 140.4931 219.0381 01.0026804702953,29.0544,7.45e-05,1.00268047,136.0402,140.4931,219.0381
36395,SDO,IGO,18050.25535431,1 36395U 10005A   18050.25535431 -.00000071 +00000-0 +00000-0 0 0001\,2 36395 029.0555 136.0223 0001272 117.2143 245.4917 01.0027647002958,29.0555,0.0001272,1.0027647,136.0223,117.2143,245.4917
36395,SDO,IGO,18052.24215726,1 36395U 10005A   18052.24215726 -.00000073 +00000-0 +00000-0 0 0706\,2 36395 029.0577 135.9865 0001279 113.2950 246.6807 01.0027616202956,29.0577,0.0001279,1.00276162,135.9865,113.295,246.6807
36395,SDO,IGO,18053.22688242,1 36395U 10005A   18053.22688242 -.00000078 +00000-0 +00000-0 0 0001\,2 36395 029.0589 135.9686 0001244 111.2399 244.2375 01.0027600002960,29.0589,0.0001244,1.00276,135.9686,111.2399,244.2375
36395,SDO,IGO,18054.23379240,1 36395U 10005A   18054.23379240 -.00000084 +00000-0 +00000-0 0 0709\,2 36395 029.0602 135.9502 0001232 109.2704 249.7177 01.0027588502958,29.0602,0.0001232,1.00275885,135.9502,109.2704,249.7177
36395,SDO,IGO,18055.22479858,1 36395U 10005A   18055.22479858 -.00000091 +00000-0 +00000-0 0 0001\,2 36395 029.0615 135.9321 0001179 107.0583 249.6982 01.0027576802962,29.0615,0.0001179,1.00275768,135.9321,107.0583,249.6982
36395,SDO,IGO,18057.22479859,1 36395U 10005A   18057.22479859 -.00000101 +00000-0 +00000-0 0 0710\,2 36395 029.0642 135.8955 0001070 101.8170 256.9698 01.0027561602961,29.0642,0.000107,1.00275616,135.8955,101.817,256.9698
36395,SDO,IGO,18058.23032076,1 36395U 10005A   18058.23032076 -.00000102 +00000-0 +00000-0 0 0711\,2 36395 029.0656 135.8770 0000999 098.5208 263.2744 01.0027557102963,29.0656,9.99e-05,1.00275571,135.877,98.5208,263.2744
36395,SDO,IGO,18059.23507052,1 36395U 10005A   18059.23507052 -.00000101 +00000-0 +00000-0 0 0712\,2 36395 029.0667 135.8589 0000970 096.0895 268.4353 01.0027557102964,29.0667,9.7e-05,1.00275571,135.8589,96.0895,268.4353
36395,SDO,IGO,18063.22547718,1 36395U 10005A   18063.22547718 -.00000086 +00000-0 +00000-0 0 0713\,2 36395 029.0719 135.7866 0000741 091.1506 273.9711 01.0027582302968,29.0719,7.41e-05,1.00275823,135.7866,91.1506,273.9711
36395,SDO,IGO,18065.19215914,1 36395U 10005A   18065.19215914 -.00000083 +00000-0 +00000-0 0 0714\,2 36395 029.0742 135.7516 0000700 094.7931 260.3319 01.0027602302969,29.0742,7e-05,1.00276023,135.7516,94.7931,260.3319
36395,SDO,IGO,18066.20366037,1 36395U 10005A   18066.20366037 -.00000084 +00000-0 +00000-0 0 0715\,2 36395 029.0753 135.7337 0000582 094.0894 266.2025 01.0027607202971,29.0753,5.82e-05,1.00276072,135.7337,94.0894,266.2025
